GLOBALSTAR M001 [-]     
1 25162U 98008A   24063.27372873 -.00000043  00000+0  40749-3 0  9999
2 25162  52.0012 263.8198 0001626  17.5445 153.8554 12.38178272185372
GLOBALSTAR M004 [-]     
1 25163U 98008B   24063.36192265 -.00000097  00000+0  41242-4 0  9994
2 25163  52.0000  50.4786 0002856 329.9107 177.7980 12.63351400202174
GLOBALSTAR M002 [-]     
1 25164U 98008C   24063.42952835 -.00000072  00000+0  88593-4 0  9992
2 25164  52.0047 340.5428 0001729  19.0719 341.0166 11.61498479129362
GLOBALSTAR M003 [-]     
1 25165U 98008D   24063.33715066  .00000035  00000+0  13277-2 0  9999
2 25165  51.9846  32.6247 0008264  66.6275 100.0402 12.11982457176124
GLOBALSTAR M014 [-]     
1 25306U 98023A   24063.52207068 -.00000054  00000+0  44167-3 0  9997
2 25306  51.9820 273.4300 0000720 142.8363 228.2179 11.65465384136293
GLOBALSTAR M006 [-]     
1 25307U 98023B   24063.44347095 -.00000058  00000+0  36869-3 0  9998
2 25307  51.9952 308.5093 0003925 353.8959 177.0645 11.58156944162282
GLOBALSTAR M015 [-]     
1 25308U 98023C   24063.37435897 -.00000150  00000+0 -17529-2 0  9994
2 25308  51.9847  25.5694 0012498 318.7861 211.3484 11.48853987139968
GLOBALSTAR M008 [-]     
1 25309U 98023D   24063.43070829 -.00000069  00000+0  21080-3 0  9998
2 25309  51.9962 122.8610 0002214 253.7305 119.4662 12.36037530179632
